STARLINK-36426          
1 67560U 26014AA  26038.58335648  .00071008  00000+0  36928-3 0  9994
2 67560  97.2838 282.0205 0000904 115.3222 245.3575 15.80766473  2696
STARLINK-36621          
1 67561U 26016A   26038.58335648  .00097660  00000+0  50605-3 0  9997
2 67561  97.2838  97.4782 0001486 100.5610  22.5898 15.80766234  3204
STARLINK-36398          
1 67562U 26016B   26038.58335648 -.01868306  00000+0 -11390-1 0  9990
2 67562  97.2791  97.4799 0002020 103.1220  26.6706 15.80310661  3192
STARLINK-36403          
1 67563U 26016C   26038.58335648  .00113030  00000+0  58422-3 0  9994
2 67563  97.2833  97.4847 0001383  88.5274  47.2740 15.80778408  3307
STARLINK-36593          
1 67564U 26016D   26038.58335648  .00147097  00000+0  75847-3 0  9995
2 67564  97.2834  97.4875 0001594  85.9558  56.8434 15.80738440  3140
STARLINK-35725          
1 67565U 26016E   26038.58335648  .00074403  00000+0  38639-3 0  9994
2 67565  97.2835  97.4890 0001269  90.6040  57.3873 15.80786672  3207
STARLINK-36394          
1 67566U 26016F   26038.58335648  .00148428  00000+0  76292-3 0  9991
2 67566  97.2783  97.4964 0001568  99.4418  70.9356 15.80804411  3300
STARLINK-36352          
1 67567U 26016G   26038.58335648  .00166786  00000+0  85772-3 0  9992
2 67567  97.2782  97.4941 0001165  98.6075  64.9942 15.80744831  3211
STARLINK-36435          
1 67568U 26016H   26038.58335648  .00221230  00000+0  11322-2 0  9998
2 67568  97.2785  97.4997 0001143  86.4621  89.9591 15.80707702  3217
STARLINK-36575          
1 67569U 26016J   26038.58335648  .00107351  00000+0  55540-3 0  9997
2 67569  97.2822  97.5036 0000958  85.4041  97.8882 15.80773535  3211
STARLINK-36562          
1 67570U 26016K   26038.58335648  .00180550  00000+0  92701-3 0  9991
2 67570  97.2821  97.5051 0001306  86.7742 101.6888 15.80743650  3214
STARLINK-36578          
1 67571U 26016L   26038.58335648  .00163720  00000+0  84268-3 0  9991
2 67571  97.2822  97.5077 0001467 118.6680  75.7354 15.80733592  3198
