CCSDS_OMM_VERS = 2.0
CREATION_DATE  = 
ORIGINATOR     = 

OBJECT_NAME    = STARLINK-36426
OBJECT_ID      = 2026-014AA
CENTER_NAME    = EARTH
REF_FRAME      = TEME
TIME_SYSTEM    = UTC
MEAN_ELEMENT_THEORY = SGP/SGP4

EPOCH          = 2026-02-07T14:00:01.999872
MEAN_MOTION    = 15.80766473
ECCENTRICITY   = .0000904
INCLINATION    = 97.2838
RA_OF_ASC_NODE = 282.0205
ARG_OF_PERICENTER = 115.3222
MEAN_ANOMALY   = 245.3575

EPHEMERIS_TYPE = 0
CLASSIFICATION_TYPE = U
NORAD_CAT_ID   = 67560
ELEMENT_SET_NO = 999
REV_AT_EPOCH   = 269
BSTAR          = .3692794E-3
MEAN_MOTION_DOT = .71008E-3
MEAN_MOTION_DDOT = 0

CCSDS_OMM_VERS = 2.0
CREATION_DATE  = 
ORIGINATOR     = 

OBJECT_NAME    = STARLINK-36621
OBJECT_ID      = 2026-016A
CENTER_NAME    = EARTH
REF_FRAME      = TEME
TIME_SYSTEM    = UTC
MEAN_ELEMENT_THEORY = SGP/SGP4

EPOCH          = 2026-02-07T14:00:01.999872
MEAN_MOTION    = 15.80766234
ECCENTRICITY   = .00014868
INCLINATION    = 97.2838
RA_OF_ASC_NODE = 97.4782
ARG_OF_PERICENTER = 100.5610
MEAN_ANOMALY   = 22.5898

EPHEMERIS_TYPE = 0
CLASSIFICATION_TYPE = U
NORAD_CAT_ID   = 67561
ELEMENT_SET_NO = 999
REV_AT_EPOCH   = 320
BSTAR          = .50604685E-3
MEAN_MOTION_DOT = .9766E-3
MEAN_MOTION_DDOT = 0

CCSDS_OMM_VERS = 2.0
CREATION_DATE  = 
ORIGINATOR     = 

OBJECT_NAME    = STARLINK-36398
OBJECT_ID      = 2026-016B
CENTER_NAME    = EARTH
REF_FRAME      = TEME
TIME_SYSTEM    = UTC
MEAN_ELEMENT_THEORY = SGP/SGP4

EPOCH          = 2026-02-07T14:00:01.999872
MEAN_MOTION    = 15.80310661
ECCENTRICITY   = .00020206
INCLINATION    = 97.2791
RA_OF_ASC_NODE = 97.4799
ARG_OF_PERICENTER = 103.1220
MEAN_ANOMALY   = 26.6706

EPHEMERIS_TYPE = 0
CLASSIFICATION_TYPE = U
NORAD_CAT_ID   = 67562
ELEMENT_SET_NO = 999
REV_AT_EPOCH   = 319
BSTAR          = -.11390437E-1
MEAN_MOTION_DOT = -.1868306E-1
MEAN_MOTION_DDOT = 0

CCSDS_OMM_VERS = 2.0
CREATION_DATE  = 
ORIGINATOR     = 

OBJECT_NAME    = STARLINK-36403
OBJECT_ID      = 2026-016C
CENTER_NAME    = EARTH
REF_FRAME      = TEME
TIME_SYSTEM    = UTC
MEAN_ELEMENT_THEORY = SGP/SGP4

EPOCH          = 2026-02-07T14:00:01.999872
MEAN_MOTION    = 15.80778408
ECCENTRICITY   = .00013835
INCLINATION    = 97.2833
RA_OF_ASC_NODE = 97.4847
ARG_OF_PERICENTER = 88.5274
MEAN_ANOMALY   = 47.2740

EPHEMERIS_TYPE = 0
CLASSIFICATION_TYPE = U
NORAD_CAT_ID   = 67563
ELEMENT_SET_NO = 999
REV_AT_EPOCH   = 330
BSTAR          = .58421659E-3
MEAN_MOTION_DOT = .11303E-2
MEAN_MOTION_DDOT = 0

CCSDS_OMM_VERS = 2.0
CREATION_DATE  = 
ORIGINATOR     = 

OBJECT_NAME    = STARLINK-36593
OBJECT_ID      = 2026-016D
CENTER_NAME    = EARTH
REF_FRAME      = TEME
TIME_SYSTEM    = UTC
MEAN_ELEMENT_THEORY = SGP/SGP4

EPOCH          = 2026-02-07T14:00:01.999872
MEAN_MOTION    = 15.80738440
ECCENTRICITY   = .00015948
INCLINATION    = 97.2834
RA_OF_ASC_NODE = 97.4875
ARG_OF_PERICENTER = 85.9558
MEAN_ANOMALY   = 56.8434

EPHEMERIS_TYPE = 0
CLASSIFICATION_TYPE = U
NORAD_CAT_ID   = 67564
ELEMENT_SET_NO = 999
REV_AT_EPOCH   = 314
BSTAR          = .75847422E-3
MEAN_MOTION_DOT = .147097E-2
MEAN_MOTION_DDOT = 0

CCSDS_OMM_VERS = 2.0
CREATION_DATE  = 
ORIGINATOR     = 

OBJECT_NAME    = STARLINK-35725
OBJECT_ID      = 2026-016E
CENTER_NAME    = EARTH
REF_FRAME      = TEME
TIME_SYSTEM    = UTC
MEAN_ELEMENT_THEORY = SGP/SGP4

EPOCH          = 2026-02-07T14:00:01.999872
MEAN_MOTION    = 15.80786672
ECCENTRICITY   = .00012691
INCLINATION    = 97.2835
RA_OF_ASC_NODE = 97.4890
ARG_OF_PERICENTER = 90.6040
MEAN_ANOMALY   = 57.3873

EPHEMERIS_TYPE = 0
CLASSIFICATION_TYPE = U
NORAD_CAT_ID   = 67565
ELEMENT_SET_NO = 999
REV_AT_EPOCH   = 320
BSTAR          = .38638808E-3
MEAN_MOTION_DOT = .74403E-3
MEAN_MOTION_DDOT = 0

CCSDS_OMM_VERS = 2.0
CREATION_DATE  = 
ORIGINATOR     = 

OBJECT_NAME    = STARLINK-36394
OBJECT_ID      = 2026-016F
CENTER_NAME    = EARTH
REF_FRAME      = TEME
TIME_SYSTEM    = UTC
MEAN_ELEMENT_THEORY = SGP/SGP4

EPOCH          = 2026-02-07T14:00:01.999872
MEAN_MOTION    = 15.80804411
ECCENTRICITY   = .00015689
INCLINATION    = 97.2783
RA_OF_ASC_NODE = 97.4964
ARG_OF_PERICENTER = 99.4418
MEAN_ANOMALY   = 70.9356

EPHEMERIS_TYPE = 0
CLASSIFICATION_TYPE = U
NORAD_CAT_ID   = 67566
ELEMENT_SET_NO = 999
REV_AT_EPOCH   = 330
BSTAR          = .7629224E-3
MEAN_MOTION_DOT = .148428E-2
MEAN_MOTION_DDOT = 0

CCSDS_OMM_VERS = 2.0
CREATION_DATE  = 
ORIGINATOR     = 

OBJECT_NAME    = STARLINK-36352
OBJECT_ID      = 2026-016G
CENTER_NAME    = EARTH
REF_FRAME      = TEME
TIME_SYSTEM    = UTC
MEAN_ELEMENT_THEORY = SGP/SGP4

EPOCH          = 2026-02-07T14:00:01.999872
MEAN_MOTION    = 15.80744831
ECCENTRICITY   = .00011654
INCLINATION    = 97.2782
RA_OF_ASC_NODE = 97.4941
ARG_OF_PERICENTER = 98.6075
MEAN_ANOMALY   = 64.9942

EPHEMERIS_TYPE = 0
CLASSIFICATION_TYPE = U
NORAD_CAT_ID   = 67567
ELEMENT_SET_NO = 999
REV_AT_EPOCH   = 321
BSTAR          = .85771758E-3
MEAN_MOTION_DOT = .166786E-2
MEAN_MOTION_DDOT = 0

CCSDS_OMM_VERS = 2.0
CREATION_DATE  = 
ORIGINATOR     = 

OBJECT_NAME    = STARLINK-36435
OBJECT_ID      = 2026-016H
CENTER_NAME    = EARTH
REF_FRAME      = TEME
TIME_SYSTEM    = UTC
MEAN_ELEMENT_THEORY = SGP/SGP4

EPOCH          = 2026-02-07T14:00:01.999872
MEAN_MOTION    = 15.80707702
ECCENTRICITY   = .00011437
INCLINATION    = 97.2785
RA_OF_ASC_NODE = 97.4997
ARG_OF_PERICENTER = 86.4621
MEAN_ANOMALY   = 89.9591

EPHEMERIS_TYPE = 0
CLASSIFICATION_TYPE = U
NORAD_CAT_ID   = 67568
ELEMENT_SET_NO = 999
REV_AT_EPOCH   = 321
BSTAR          = .11322399E-2
MEAN_MOTION_DOT = .22123E-2
MEAN_MOTION_DDOT = 0

CCSDS_OMM_VERS = 2.0
CREATION_DATE  = 
ORIGINATOR     = 

OBJECT_NAME    = STARLINK-36575
OBJECT_ID      = 2026-016J
CENTER_NAME    = EARTH
REF_FRAME      = TEME
TIME_SYSTEM    = UTC
MEAN_ELEMENT_THEORY = SGP/SGP4

EPOCH          = 2026-02-07T14:00:01.999872
MEAN_MOTION    = 15.80773535
ECCENTRICITY   = .00009581
INCLINATION    = 97.2822
RA_OF_ASC_NODE = 97.5036
ARG_OF_PERICENTER = 85.4041
MEAN_ANOMALY   = 97.8882

EPHEMERIS_TYPE = 0
CLASSIFICATION_TYPE = U
NORAD_CAT_ID   = 67569
ELEMENT_SET_NO = 999
REV_AT_EPOCH   = 321
BSTAR          = .55539884E-3
MEAN_MOTION_DOT = .107351E-2
MEAN_MOTION_DDOT = 0

CCSDS_OMM_VERS = 2.0
CREATION_DATE  = 
ORIGINATOR     = 

OBJECT_NAME    = STARLINK-36562
OBJECT_ID      = 2026-016K
CENTER_NAME    = EARTH
REF_FRAME      = TEME
TIME_SYSTEM    = UTC
MEAN_ELEMENT_THEORY = SGP/SGP4

EPOCH          = 2026-02-07T14:00:01.999872
MEAN_MOTION    = 15.80743650
ECCENTRICITY   = .00013064
INCLINATION    = 97.2821
RA_OF_ASC_NODE = 97.5051
ARG_OF_PERICENTER = 86.7742
MEAN_ANOMALY   = 101.6888

EPHEMERIS_TYPE = 0
CLASSIFICATION_TYPE = U
NORAD_CAT_ID   = 67570
ELEMENT_SET_NO = 999
REV_AT_EPOCH   = 321
BSTAR          = .92701337E-3
MEAN_MOTION_DOT = .18055E-2
MEAN_MOTION_DDOT = 0

CCSDS_OMM_VERS = 2.0
CREATION_DATE  = 
ORIGINATOR     = 

OBJECT_NAME    = STARLINK-36578
OBJECT_ID      = 2026-016L
CENTER_NAME    = EARTH
REF_FRAME      = TEME
TIME_SYSTEM    = UTC
MEAN_ELEMENT_THEORY = SGP/SGP4

EPOCH          = 2026-02-07T14:00:01.999872
MEAN_MOTION    = 15.80733592
ECCENTRICITY   = .00014673
INCLINATION    = 97.2822
RA_OF_ASC_NODE = 97.5077
ARG_OF_PERICENTER = 118.6680
MEAN_ANOMALY   = 75.7354

EPHEMERIS_TYPE = 0
CLASSIFICATION_TYPE = U
NORAD_CAT_ID   = 67571
ELEMENT_SET_NO = 999
REV_AT_EPOCH   = 319
BSTAR          = .84268467E-3
MEAN_MOTION_DOT = .16372E-2
MEAN_MOTION_DDOT = 0

